CCSDS_OMM_VERS = 2.0
CREATION_DATE  = 
ORIGINATOR     = 

OBJECT_NAME    = UNKNOWN
OBJECT_ID      = 
CENTER_NAME    = EARTH
REF_FRAME      = TEME
TIME_SYSTEM    = UTC
MEAN_ELEMENT_THEORY = SGP/SGP4

EPOCH          = 2026-02-27T19:54:56.214720
MEAN_MOTION    = 15.15284889
ECCENTRICITY   = .00019369
INCLINATION    = 98.6718
RA_OF_ASC_NODE = 88.0756
ARG_OF_PERICENTER = 190.2580
MEAN_ANOMALY   = 169.8610

EPHEMERIS_TYPE = 0
CLASSIFICATION_TYPE = U
NORAD_CAT_ID   = 270304
ELEMENT_SET_NO = 999
REV_AT_EPOCH   = 25985
BSTAR          = .51189632E-2
MEAN_MOTION_DOT = .97521E-3
MEAN_MOTION_DDOT = 0

CCSDS_OMM_VERS = 2.0
CREATION_DATE  = 
ORIGINATOR     = 

OBJECT_NAME    = UNKNOWN
OBJECT_ID      = 
CENTER_NAME    = EARTH
REF_FRAME      = TEME
TIME_SYSTEM    = UTC
MEAN_ELEMENT_THEORY = SGP/SGP4

EPOCH          = 2026-02-27T11:34:03.904896
MEAN_MOTION    = 14.37580331
ECCENTRICITY   = .00085495
INCLINATION    = 98.8257
RA_OF_ASC_NODE = 43.3715
ARG_OF_PERICENTER = 76.4395
MEAN_ANOMALY   = 283.7743

EPHEMERIS_TYPE = 0
CLASSIFICATION_TYPE = U
NORAD_CAT_ID   = 270305
ELEMENT_SET_NO = 999
REV_AT_EPOCH   = 25531
BSTAR          = .55278119E-3
MEAN_MOTION_DOT = .1612E-4
MEAN_MOTION_DDOT = 0

CCSDS_OMM_VERS = 2.0
CREATION_DATE  = 
ORIGINATOR     = 

OBJECT_NAME    = UNKNOWN
OBJECT_ID      = 
CENTER_NAME    = EARTH
REF_FRAME      = TEME
TIME_SYSTEM    = UTC
MEAN_ELEMENT_THEORY = SGP/SGP4

EPOCH          = 2026-02-05T04:13:51.286656
MEAN_MOTION    = 12.92697537
ECCENTRICITY   = .0027196
INCLINATION    = 90.2466
RA_OF_ASC_NODE = 4.0555
ARG_OF_PERICENTER = 277.4000
MEAN_ANOMALY   = 82.4028

EPHEMERIS_TYPE = 0
CLASSIFICATION_TYPE = U
NORAD_CAT_ID   = 270306
ELEMENT_SET_NO = 999
REV_AT_EPOCH   = 24756
BSTAR          = .20755046E-3
MEAN_MOTION_DOT = .63E-6
MEAN_MOTION_DDOT = 0

CCSDS_OMM_VERS = 2.0
CREATION_DATE  = 
ORIGINATOR     = 

OBJECT_NAME    = UNKNOWN
OBJECT_ID      = 
CENTER_NAME    = EARTH
REF_FRAME      = TEME
TIME_SYSTEM    = UTC
MEAN_ELEMENT_THEORY = SGP/SGP4

EPOCH          = 2026-02-05T15:38:15.878688
MEAN_MOTION    = 13.66536753
ECCENTRICITY   = .00759237
INCLINATION    = 82.6997
RA_OF_ASC_NODE = 178.2709
ARG_OF_PERICENTER = 141.5291
MEAN_ANOMALY   = 219.1308

EPHEMERIS_TYPE = 0
CLASSIFICATION_TYPE = U
NORAD_CAT_ID   = 270307
ELEMENT_SET_NO = 999
REV_AT_EPOCH   = 28440
BSTAR          = .18570288E-1
MEAN_MOTION_DOT = .15745E-3
MEAN_MOTION_DDOT = 0

CCSDS_OMM_VERS = 2.0
CREATION_DATE  = 
ORIGINATOR     = 

OBJECT_NAME    = UNKNOWN
OBJECT_ID      = 
CENTER_NAME    = EARTH
REF_FRAME      = TEME
TIME_SYSTEM    = UTC
MEAN_ELEMENT_THEORY = SGP/SGP4

EPOCH          = 2026-02-27T08:54:34.434432
MEAN_MOTION    = 12.99527889
ECCENTRICITY   = .02141351
INCLINATION    = 82.5727
RA_OF_ASC_NODE = 286.9309
ARG_OF_PERICENTER = 69.9158
MEAN_ANOMALY   = 292.4860

EPHEMERIS_TYPE = 0
CLASSIFICATION_TYPE = U
NORAD_CAT_ID   = 270308
ELEMENT_SET_NO = 999
REV_AT_EPOCH   = 28291
BSTAR          = .91040631E-2
MEAN_MOTION_DOT = .304E-4
MEAN_MOTION_DDOT = 0

CCSDS_OMM_VERS = 2.0
CREATION_DATE  = 
ORIGINATOR     = 

OBJECT_NAME    = UNKNOWN
OBJECT_ID      = 
CENTER_NAME    = EARTH
REF_FRAME      = TEME
TIME_SYSTEM    = UTC
MEAN_ELEMENT_THEORY = SGP/SGP4

EPOCH          = 2026-02-27T22:43:21.281376
MEAN_MOTION    = 14.93900340
ECCENTRICITY   = .0037475
INCLINATION    = 98.3978
RA_OF_ASC_NODE = 46.3887
ARG_OF_PERICENTER = 58.8793
MEAN_ANOMALY   = 301.6092

EPHEMERIS_TYPE = 0
CLASSIFICATION_TYPE = U
NORAD_CAT_ID   = 270309
ELEMENT_SET_NO = 999
REV_AT_EPOCH   = 27936
BSTAR          = .62210934E-3
MEAN_MOTION_DOT = .6643E-4
MEAN_MOTION_DDOT = 0

CCSDS_OMM_VERS = 2.0
CREATION_DATE  = 
ORIGINATOR     = 

OBJECT_NAME    = UNKNOWN
OBJECT_ID      = 
CENTER_NAME    = EARTH
REF_FRAME      = TEME
TIME_SYSTEM    = UTC
MEAN_ELEMENT_THEORY = SGP/SGP4

EPOCH          = 2026-02-23T18:52:08.545728
MEAN_MOTION    = 14.52546979
ECCENTRICITY   = .00201291
INCLINATION    = 98.8073
RA_OF_ASC_NODE = 48.4561
ARG_OF_PERICENTER = 316.6217
MEAN_ANOMALY   = 43.3392

EPHEMERIS_TYPE = 0
CLASSIFICATION_TYPE = U
NORAD_CAT_ID   = 270311
ELEMENT_SET_NO = 999
REV_AT_EPOCH   = 25656
BSTAR          = .23651561E-2
MEAN_MOTION_DOT = .9654E-4
MEAN_MOTION_DDOT = 0

CCSDS_OMM_VERS = 2.0
CREATION_DATE  = 
ORIGINATOR     = 

OBJECT_NAME    = UNKNOWN
OBJECT_ID      = 
CENTER_NAME    = EARTH
REF_FRAME      = TEME
TIME_SYSTEM    = UTC
MEAN_ELEMENT_THEORY = SGP/SGP4

EPOCH          = 2026-02-01T18:19:01.081344
MEAN_MOTION    = 14.18302001
ECCENTRICITY   = .00293501
INCLINATION    = 98.4503
RA_OF_ASC_NODE = 36.9466
ARG_OF_PERICENTER = 348.6006
MEAN_ANOMALY   = 11.4503

EPHEMERIS_TYPE = 0
CLASSIFICATION_TYPE = U
NORAD_CAT_ID   = 270312
ELEMENT_SET_NO = 999
REV_AT_EPOCH   = 31987
BSTAR          = .31829367E-3
MEAN_MOTION_DOT = .617E-5
MEAN_MOTION_DDOT = 0

CCSDS_OMM_VERS = 2.0
CREATION_DATE  = 
ORIGINATOR     = 

OBJECT_NAME    = UNKNOWN
OBJECT_ID      = 
CENTER_NAME    = EARTH
REF_FRAME      = TEME
TIME_SYSTEM    = UTC
MEAN_ELEMENT_THEORY = SGP/SGP4

EPOCH          = 2026-02-03T16:03:28.152576
MEAN_MOTION    = 12.95208727
ECCENTRICITY   = .00253657
INCLINATION    = 90.2487
RA_OF_ASC_NODE = 8.1726
ARG_OF_PERICENTER = 193.4386
MEAN_ANOMALY   = 166.6061

EPHEMERIS_TYPE = 0
CLASSIFICATION_TYPE = U
NORAD_CAT_ID   = 270313
ELEMENT_SET_NO = 999
REV_AT_EPOCH   = 28778
BSTAR          = .1416025E-2
MEAN_MOTION_DOT = .406E-5
MEAN_MOTION_DDOT = 0

CCSDS_OMM_VERS = 2.0
CREATION_DATE  = 
ORIGINATOR     = 

OBJECT_NAME    = UNKNOWN
OBJECT_ID      = 
CENTER_NAME    = EARTH
REF_FRAME      = TEME
TIME_SYSTEM    = UTC
MEAN_ELEMENT_THEORY = SGP/SGP4

EPOCH          = 2026-02-22T19:54:51.339168
MEAN_MOTION    = 12.94773696
ECCENTRICITY   = .00243463
INCLINATION    = 90.2505
RA_OF_ASC_NODE = 4.4569
ARG_OF_PERICENTER = 205.1710
MEAN_ANOMALY   = 154.8225

EPHEMERIS_TYPE = 0
CLASSIFICATION_TYPE = U
NORAD_CAT_ID   = 270314
ELEMENT_SET_NO = 999
REV_AT_EPOCH   = 27782
BSTAR          = .15755041E-2
MEAN_MOTION_DOT = .448E-5
MEAN_MOTION_DDOT = 0

CCSDS_OMM_VERS = 2.0
CREATION_DATE  = 
ORIGINATOR     = 

OBJECT_NAME    = UNKNOWN
OBJECT_ID      = 
CENTER_NAME    = EARTH
REF_FRAME      = TEME
TIME_SYSTEM    = UTC
MEAN_ELEMENT_THEORY = SGP/SGP4

EPOCH          = 2026-02-19T20:35:11.207040
MEAN_MOTION    = 14.11160592
ECCENTRICITY   = .02698824
INCLINATION    = 97.6666
RA_OF_ASC_NODE = 281.0029
ARG_OF_PERICENTER = 171.6768
MEAN_ANOMALY   = 188.9020

EPHEMERIS_TYPE = 0
CLASSIFICATION_TYPE = U
NORAD_CAT_ID   = 270315
ELEMENT_SET_NO = 999
REV_AT_EPOCH   = 29367
BSTAR          = .1070258E-2
MEAN_MOTION_DOT = .268E-4
MEAN_MOTION_DDOT = 0

CCSDS_OMM_VERS = 2.0
CREATION_DATE  = 
ORIGINATOR     = 

OBJECT_NAME    = UNKNOWN
OBJECT_ID      = 
CENTER_NAME    = EARTH
REF_FRAME      = TEME
TIME_SYSTEM    = UTC
MEAN_ELEMENT_THEORY = SGP/SGP4

EPOCH          = 2026-02-27T10:17:50.722656
MEAN_MOTION    = 14.21156929
ECCENTRICITY   = .00087092
INCLINATION    = 81.2095
RA_OF_ASC_NODE = 320.6127
ARG_OF_PERICENTER = 52.4174
MEAN_ANOMALY   = 307.7793

EPHEMERIS_TYPE = 0
CLASSIFICATION_TYPE = U
NORAD_CAT_ID   = 270316
ELEMENT_SET_NO = 999
REV_AT_EPOCH   = 27499
BSTAR          = .15355132E-2
MEAN_MOTION_DOT = .3351E-4
MEAN_MOTION_DDOT = 0

CCSDS_OMM_VERS = 2.0
CREATION_DATE  = 
ORIGINATOR     = 

OBJECT_NAME    = UNKNOWN
OBJECT_ID      = 
CENTER_NAME    = EARTH
REF_FRAME      = TEME
TIME_SYSTEM    = UTC
MEAN_ELEMENT_THEORY = SGP/SGP4

EPOCH          = 2026-02-24T14:43:07.792896
MEAN_MOTION    = 12.93347922
ECCENTRICITY   = .00218336
INCLINATION    = 90.2492
RA_OF_ASC_NODE = 4.8415
ARG_OF_PERICENTER = 196.5010
MEAN_ANOMALY   = 163.5400

EPHEMERIS_TYPE = 0
CLASSIFICATION_TYPE = U
NORAD_CAT_ID   = 270317
ELEMENT_SET_NO = 999
REV_AT_EPOCH   = 8024
BSTAR          = .91625961E-3
MEAN_MOTION_DOT = .258E-5
MEAN_MOTION_DDOT = 0

CCSDS_OMM_VERS = 2.0
CREATION_DATE  = 
ORIGINATOR     = 

OBJECT_NAME    = UNKNOWN
OBJECT_ID      = 
CENTER_NAME    = EARTH
REF_FRAME      = TEME
TIME_SYSTEM    = UTC
MEAN_ELEMENT_THEORY = SGP/SGP4

EPOCH          = 2026-01-30T16:55:58.687968
MEAN_MOTION    = 12.53138267
ECCENTRICITY   = .05322577
INCLINATION    = 102.9925
RA_OF_ASC_NODE = 183.7767
ARG_OF_PERICENTER = 229.8458
MEAN_ANOMALY   = 125.4830

EPHEMERIS_TYPE = 0
CLASSIFICATION_TYPE = U
NORAD_CAT_ID   = 270319
ELEMENT_SET_NO = 999
REV_AT_EPOCH   = 6846
BSTAR          = .25255133E-1
MEAN_MOTION_DOT = .6708E-4
MEAN_MOTION_DDOT = 0

CCSDS_OMM_VERS = 2.0
CREATION_DATE  = 
ORIGINATOR     = 

OBJECT_NAME    = UNKNOWN
OBJECT_ID      = 
CENTER_NAME    = EARTH
REF_FRAME      = TEME
TIME_SYSTEM    = UTC
MEAN_ELEMENT_THEORY = SGP/SGP4

EPOCH          = 2026-02-25T06:35:18.453696
MEAN_MOTION    = 12.99509633
ECCENTRICITY   = .00244313
INCLINATION    = 90.2439
RA_OF_ASC_NODE = 2.8029
ARG_OF_PERICENTER = 263.9635
MEAN_ANOMALY   = 95.8702

EPHEMERIS_TYPE = 0
CLASSIFICATION_TYPE = U
NORAD_CAT_ID   = 270320
ELEMENT_SET_NO = 999
REV_AT_EPOCH   = 23009
BSTAR          = -.25688509E-4
MEAN_MOTION_DOT = 0
MEAN_MOTION_DDOT = 0

CCSDS_OMM_VERS = 2.0
CREATION_DATE  = 
ORIGINATOR     = 

OBJECT_NAME    = UNKNOWN
OBJECT_ID      = 
CENTER_NAME    = EARTH
REF_FRAME      = TEME
TIME_SYSTEM    = UTC
MEAN_ELEMENT_THEORY = SGP/SGP4

EPOCH          = 2026-02-27T19:06:38.906496
MEAN_MOTION    = 12.92677799
ECCENTRICITY   = .00283617
INCLINATION    = 90.2495
RA_OF_ASC_NODE = 4.3281
ARG_OF_PERICENTER = 209.4676
MEAN_ANOMALY   = 150.4845

EPHEMERIS_TYPE = 0
CLASSIFICATION_TYPE = U
NORAD_CAT_ID   = 270321
ELEMENT_SET_NO = 999
REV_AT_EPOCH   = 25191
BSTAR          = .29119765E-3
MEAN_MOTION_DOT = .86E-6
MEAN_MOTION_DDOT = 0

